[{"OBJECT_NAME":"STARLINK-32114","OBJECT_ID":"2024-132K","EPOCH":"2026-03-09T22:27:23.080320","MEAN_MOTION":15.30189887,"ECCENTRICITY":0.00012602,"INCLINATION":53.161,"RA_OF_ASC_NODE":51.5983,"ARG_OF_PERICENTER":90.0638,"MEAN_ANOMALY":270.0508,"EPHEMERIS_TYPE":0,"CLASSIFICATION_TYPE":"U","NORAD_CAT_ID":60287,"ELEMENT_SET_NO":999,"REV_AT_EPOCH":9159,"BSTAR":-2.22576e-6,"MEAN_MOTION_DOT":-4.25e-6,"MEAN_MOTION_DDOT":0},{"OBJECT_NAME":"FLOCK 4BE-27","OBJECT_ID":"2024-149AX","EPOCH":"2026-03-09T18:04:53.053248","MEAN_MOTION":15.32593322,"ECCENTRICITY":0.00027324,"INCLINATION":97.3862,"RA_OF_ASC_NODE":150.6783,"ARG_OF_PERICENTER":305.898,"MEAN_ANOMALY":54.2008,"EPHEMERIS_TYPE":0,"CLASSIFICATION_TYPE":"U","NORAD_CAT_ID":60513,"ELEMENT_SET_NO":999,"REV_AT_EPOCH":8690,"BSTAR":0.00036576028,"MEAN_MOTION_DOT":0.00011439,"MEAN_MOTION_DDOT":0}]
